IRIDIUM 112             
1 41925U 17003J   25033.66072016  .00000707  00000+0  24545-3 0  9999
2 41925  86.3969 297.0413 0001884  82.9136 277.2274 14.34218382421701
IRIDIUM 111             
1 41926U 17003K   25033.22941248  .00000675  00000+0  23398-3 0  9993
2 41926  86.3971 297.2812 0002150  85.7990 274.3452 14.34223061421599
IRIDIUM 113             
1 42803U 17039A   25033.41868197  .00000852  00000+0  29703-3 0  9992
2 42803  86.4030 171.0329 0001512 101.2479 258.8887 14.34225309399556
IRIDIUM 123             
1 42804U 17039B   25033.52994109 -.00000163  00000+0 -65109-4 0  9996
2 42804  86.3991 202.4107 0002116  97.6384 262.5052 14.34215755398334
IRIDIUM 120             
1 42805U 17039C   25033.41235267  .00000835  00000+0  29105-3 0  9997
2 42805  86.4016 170.8828 0002371  92.5654 267.5814 14.34217832399542
IRIDIUM 115             
1 42806U 17039D   25033.45121144  .00001118  00000+0  32634-3 0  9996
2 42806  86.4555 170.9258 0002423 107.0409 253.1057 14.43288742402180
IRIDIUM 118             
1 42807U 17039E   25033.49188675  .00000162  00000+0  50875-4 0  9999
2 42807  86.3987 202.4268 0002010  93.5290 266.6135 14.34215782398320
IRIDIUM 117             
1 42808U 17039F   25033.58068186  .00000542  00000+0  18658-3 0  9998
2 42808  86.3988 202.3521 0002265  98.1600 261.9853 14.34217074398377
